[{"OBJECT_NAME":"ALOS (DAICHI)","OBJECT_ID":"2006-002A","EPOCH":"2026-03-08T21:21:57.074688","MEAN_MOTION":14.69808065,"ECCENTRICITY":9.55e-5,"INCLINATION":98.1218,"RA_OF_ASC_NODE":23.8497,"ARG_OF_PERICENTER":57.5121,"MEAN_ANOMALY":302.6177,"EPHEMERIS_TYPE":0,"CLASSIFICATION_TYPE":"U","NORAD_CAT_ID":28931,"ELEMENT_SET_NO":999,"REV_AT_EPOCH":7336,"BSTAR":0.00034352009,"MEAN_MOTION_DOT":2.002e-5,"MEAN_MOTION_DDOT":0},{"OBJECT_NAME":"H-2A R/B","OBJECT_ID":"2006-002B","EPOCH":"2026-03-08T22:47:00.644064","MEAN_MOTION":15.16402873,"ECCENTRICITY":0.00519623,"INCLINATION":98.2411,"RA_OF_ASC_NODE":214.9087,"ARG_OF_PERICENTER":243.5972,"MEAN_ANOMALY":115.992,"EPHEMERIS_TYPE":0,"CLASSIFICATION_TYPE":"U","NORAD_CAT_ID":28932,"ELEMENT_SET_NO":999,"REV_AT_EPOCH":9432,"BSTAR":0.00069490276,"MEAN_MOTION_DOT":0.00013908,"MEAN_MOTION_DDOT":0},{"OBJECT_NAME":"RESURS-DK 1","OBJECT_ID":"2006-021A","EPOCH":"2026-03-08T20:58:53.488416","MEAN_MOTION":15.12737697,"ECCENTRICITY":0.00019598,"INCLINATION":69.9316,"RA_OF_ASC_NODE":239.1324,"ARG_OF_PERICENTER":163.3038,"MEAN_ANOMALY":196.8193,"EPHEMERIS_TYPE":0,"CLASSIFICATION_TYPE":"U","NORAD_CAT_ID":29228,"ELEMENT_SET_NO":999,"REV_AT_EPOCH":8740,"BSTAR":0.00025840086,"MEAN_MOTION_DOT":4.434e-5,"MEAN_MOTION_DDOT":0},{"OBJECT_NAME":"CZ-4B R/B","OBJECT_ID":"2006-046C","EPOCH":"2026-03-08T16:27:23.865696","MEAN_MOTION":15.16893012,"ECCENTRICITY":0.00316694,"INCLINATION":97.5593,"RA_OF_ASC_NODE":112.5971,"ARG_OF_PERICENTER":271.0169,"MEAN_ANOMALY":88.7436,"EPHEMERIS_TYPE":0,"CLASSIFICATION_TYPE":"U","NORAD_CAT_ID":29507,"ELEMENT_SET_NO":999,"REV_AT_EPOCH":5989,"BSTAR":0.00034602048,"MEAN_MOTION_DOT":6.835e-5,"MEAN_MOTION_DDOT":0},{"OBJECT_NAME":"CZ-2C R/B","OBJECT_ID":"2007-010B","EPOCH":"2026-03-08T22:49:21.171072","MEAN_MOTION":14.20245867,"ECCENTRICITY":0.00579309,"INCLINATION":98.3979,"RA_OF_ASC_NODE":181.2667,"ARG_OF_PERICENTER":296.7881,"MEAN_ANOMALY":62.7378,"EPHEMERIS_TYPE":0,"CLASSIFICATION_TYPE":"U","NORAD_CAT_ID":31114,"ELEMENT_SET_NO":999,"REV_AT_EPOCH":97961,"BSTAR":9.5986291e-5,"MEAN_MOTION_DOT":1.67e-6,"MEAN_MOTION_DDOT":0},{"OBJECT_NAME":"COSMO-SKYMED 1","OBJECT_ID":"2007-023A","EPOCH":"2026-03-08T22:17:44.500128","MEAN_MOTION":14.96528628,"ECCENTRICITY":0.00011684,"INCLINATION":97.887,"RA_OF_ASC_NODE":258.9546,"ARG_OF_PERICENTER":100.5461,"MEAN_ANOMALY":259.5892,"EPHEMERIS_TYPE":0,"CLASSIFICATION_TYPE":"U","NORAD_CAT_ID":31598,"ELEMENT_SET_NO":999,"REV_AT_EPOCH":1479,"BSTAR":0.00046489745,"MEAN_MOTION_DOT":5.227e-5,"MEAN_MOTION_DDOT":0},{"OBJECT_NAME":"COSMOS 2428","OBJECT_ID":"2007-029A","EPOCH":"2026-03-08T19:50:33.012672","MEAN_MOTION":14.12945926,"ECCENTRICITY":0.00090894,"INCLINATION":70.9431,"RA_OF_ASC_NODE":205.1539,"ARG_OF_PERICENTER":277.9391,"MEAN_ANOMALY":82.0698,"EPHEMERIS_TYPE":0,"CLASSIFICATION_TYPE":"U","NORAD_CAT_ID":31792,"ELEMENT_SET_NO":999,"REV_AT_EPOCH":96397,"BSTAR":6.3698934e-5,"MEAN_MOTION_DOT":7.1e-7,"MEAN_MOTION_DDOT":0},{"OBJECT_NAME":"SL-16 R/B","OBJECT_ID":"2007-029B","EPOCH":"2026-03-08T17:23:13.510752","MEAN_MOTION":14.14833259,"ECCENTRICITY":0.00023176,"INCLINATION":70.9759,"RA_OF_ASC_NODE":174.4136,"ARG_OF_PERICENTER":276.406,"MEAN_ANOMALY":191.5066,"EPHEMERIS_TYPE":0,"CLASSIFICATION_TYPE":"U","NORAD_CAT_ID":31793,"ELEMENT_SET_NO":999,"REV_AT_EPOCH":96523,"BSTAR":3.1990246e-5,"MEAN_MOTION_DOT":1.4e-7,"MEAN_MOTION_DDOT":0},{"OBJECT_NAME":"KORONAS-FOTON","OBJECT_ID":"2009-003A","EPOCH":"2026-03-08T15:53:21.472512","MEAN_MOTION":15.43301564,"ECCENTRICITY":0.00112609,"INCLINATION":82.4273,"RA_OF_ASC_NODE":276.9464,"ARG_OF_PERICENTER":152.8275,"MEAN_ANOMALY":207.3564,"EPHEMERIS_TYPE":0,"CLASSIFICATION_TYPE":"U","NORAD_CAT_ID":33504,"ELEMENT_SET_NO":999,"REV_AT_EPOCH":94558,"BSTAR":0.00037366555,"MEAN_MOTION_DOT":0.00016717,"MEAN_MOTION_DDOT":0},{"OBJECT_NAME":"CZ-2C R/B","OBJECT_ID":"2011-030B","EPOCH":"2026-03-08T20:49:07.109760","MEAN_MOTION":14.81219094,"ECCENTRICITY":0.00524853,"INCLINATION":97.8549,"RA_OF_ASC_NODE":25.1471,"ARG_OF_PERICENTER":354.7594,"MEAN_ANOMALY":58.9459,"EPHEMERIS_TYPE":0,"CLASSIFICATION_TYPE":"U","NORAD_CAT_ID":37731,"ELEMENT_SET_NO":999,"REV_AT_EPOCH":78997,"BSTAR":0.00029528301,"MEAN_MOTION_DOT":2.299e-5,"MEAN_MOTION_DDOT":0},{"OBJECT_NAME":"H-2A R/B","OBJECT_ID":"2012-025E","EPOCH":"2026-03-08T20:36:22.901760","MEAN_MOTION":14.95162338,"ECCENTRICITY":0.00433758,"INCLINATION":98.4742,"RA_OF_ASC_NODE":34.8384,"ARG_OF_PERICENTER":317.2692,"MEAN_ANOMALY":42.5156,"EPHEMERIS_TYPE":0,"CLASSIFICATION_TYPE":"U","NORAD_CAT_ID":38341,"ELEMENT_SET_NO":999,"REV_AT_EPOCH":74809,"BSTAR":0.00052866597,"MEAN_MOTION_DOT":5.846e-5,"MEAN_MOTION_DDOT":0},{"OBJECT_NAME":"SHIJIAN-16 (SJ-16)","OBJECT_ID":"2013-057A","EPOCH":"2026-03-08T23:00:27.277920","MEAN_MOTION":14.92342197,"ECCENTRICITY":0.00154712,"INCLINATION":74.9735,"RA_OF_ASC_NODE":186.4709,"ARG_OF_PERICENTER":114.4954,"MEAN_ANOMALY":245.7849,"EPHEMERIS_TYPE":0,"CLASSIFICATION_TYPE":"U","NORAD_CAT_ID":39358,"ELEMENT_SET_NO":999,"REV_AT_EPOCH":67139,"BSTAR":0.00016865963,"MEAN_MOTION_DOT":1.699e-5,"MEAN_MOTION_DDOT":0},{"OBJECT_NAME":"SL-4 R/B","OBJECT_ID":"2014-021B","EPOCH":"2026-03-08T21:57:13.895424","MEAN_MOTION":15.39151766,"ECCENTRICITY":0.00976178,"INCLINATION":51.6074,"RA_OF_ASC_NODE":341.0593,"ARG_OF_PERICENTER":100.2042,"MEAN_ANOMALY":260.9968,"EPHEMERIS_TYPE":0,"CLASSIFICATION_TYPE":"U","NORAD_CAT_ID":39679,"ELEMENT_SET_NO":999,"REV_AT_EPOCH":65615,"BSTAR":0.00042012505,"MEAN_MOTION_DOT":0.00019164,"MEAN_MOTION_DDOT":0},{"OBJECT_NAME":"ALOS-2","OBJECT_ID":"2014-029A","EPOCH":"2026-03-08T21:46:25.904064","MEAN_MOTION":14.79500638,"ECCENTRICITY":0.0001529,"INCLINATION":97.9194,"RA_OF_ASC_NODE":166.5154,"ARG_OF_PERICENTER":94.6203,"MEAN_ANOMALY":265.5183,"EPHEMERIS_TYPE":0,"CLASSIFICATION_TYPE":"U","NORAD_CAT_ID":39766,"ELEMENT_SET_NO":999,"REV_AT_EPOCH":63675,"BSTAR":0.00030104134,"MEAN_MOTION_DOT":2.199e-5,"MEAN_MOTION_DDOT":0},{"OBJECT_NAME":"YAOGAN-29","OBJECT_ID":"2015-069A","EPOCH":"2026-03-08T23:38:07.819872","MEAN_MOTION":14.82996195,"ECCENTRICITY":0.00019851,"INCLINATION":98.0142,"RA_OF_ASC_NODE":96.4122,"ARG_OF_PERICENTER":39.0391,"MEAN_ANOMALY":321.0965,"EPHEMERIS_TYPE":0,"CLASSIFICATION_TYPE":"U","NORAD_CAT_ID":41038,"ELEMENT_SET_NO":999,"REV_AT_EPOCH":55577,"BSTAR":0.00011096658,"MEAN_MOTION_DOT":8.47e-6,"MEAN_MOTION_DDOT":0},{"OBJECT_NAME":"ASTRO-H (HITOMI)","OBJECT_ID":"2016-012A","EPOCH":"2026-03-08T21:46:02.133696","MEAN_MOTION":15.09999868,"ECCENTRICITY":0.00098865,"INCLINATION":31.0008,"RA_OF_ASC_NODE":1.5984,"ARG_OF_PERICENTER":323.2625,"MEAN_ANOMALY":36.7335,"EPHEMERIS_TYPE":0,"CLASSIFICATION_TYPE":"U","NORAD_CAT_ID":41337,"ELEMENT_SET_NO":999,"REV_AT_EPOCH":55211,"BSTAR":0.00027389861,"MEAN_MOTION_DOT":4.66e-5,"MEAN_MOTION_DDOT":0}]
