ALOS (DAICHI)           
1 28931U 06002A   26067.89024392  .00002002  00000+0  34352-3 0  9992
2 28931  98.1218  23.8497 0000955  57.5121 302.6177 14.69808065 73369
H-2A R/B                
1 28932U 06002B   26067.94931301  .00013908  00000+0  69490-3 0  9994
2 28932  98.2411 214.9087 0051962 243.5972 115.9920 15.16402873 94329
RESURS-DK 1             
1 29228U 06021A   26067.87423019  .00004434  00000+0  25840-3 0  9993
2 29228  69.9316 239.1324 0001959 163.3038 196.8193 15.12737697 87405
CZ-4B R/B               
1 29507U 06046C   26067.68569289  .00006835  00000+0  34602-3 0  9992
2 29507  97.5593 112.5971 0031669 271.0169  88.7436 15.16893012 59893
CZ-2C R/B               
1 31114U 07010B   26067.95093948  .00000167  00000+0  95986-4 0  9990
2 31114  98.3979 181.2667 0057930 296.7881  62.7378 14.20245867979617
COSMO-SKYMED 1          
1 31598U 07023A   26067.92898727  .00005227  00000+0  46490-3 0  9992
2 31598  97.8870 258.9546 0001168 100.5461 259.5892 14.96528628 14791
COSMOS 2428             
1 31792U 07029A   26067.82677098  .00000071  00000+0  63699-4 0  9992
2 31792  70.9431 205.1539 0009089 277.9391  82.0698 14.12945926963977
SL-16 R/B               
1 31793U 07029B   26067.72446193  .00000014  00000+0  31990-4 0  9998
2 31793  70.9759 174.4136 0002317 276.4060 191.5066 14.14833259965239
KORONAS-FOTON           
1 33504U 09003A   26067.66205408  .00016717  00000+0  37367-3 0  9999
2 33504  82.4273 276.9464 0011260 152.8275 207.3564 15.43301564945581
CZ-2C R/B               
1 37731U 11030B   26067.86744340  .00002299  00000+0  29528-3 0  9993
2 37731  97.8549  25.1471 0052485 354.7594  58.9459 14.81219094789975
H-2A R/B                
1 38341U 12025E   26067.85859840  .00005846  00000+0  52867-3 0  9990
2 38341  98.4742  34.8384 0043375 317.2692  42.5156 14.95162338748090
SHIJIAN-16 (SJ-16)      
1 39358U 13057A   26067.95864905  .00001699  00000+0  16866-3 0  9995
2 39358  74.9735 186.4709 0015471 114.4954 245.7849 14.92342197671393
SL-4 R/B                
1 39679U 14021B   26067.91474416  .00019164  00000+0  42013-3 0  9992
2 39679  51.6074 341.0593 0097617 100.2042 260.9968 15.39151766656150
ALOS-2                  
1 39766U 14029A   26067.90724426  .00002199  00000+0  30104-3 0  9993
2 39766  97.9194 166.5154 0001529  94.6203 265.5183 14.79500638636751
YAOGAN-29               
1 41038U 15069A   26067.98481273  .00000847  00000+0  11097-3 0  9999
2 41038  98.0142  96.4122 0001985  39.0391 321.0965 14.82996195555773
ASTRO-H (HITOMI)        
1 41337U 16012A   26067.90696914  .00004660  00000+0  27390-3 0  9992
2 41337  31.0008   1.5984 0009886 323.2625  36.7335 15.09999868552118
